[{"OBJECT_NAME":"NINGXIA-1 4","OBJECT_ID":"2019-076D","EPOCH":"2026-03-09T22:43:42.811392","MEAN_MOTION":14.02017306,"ECCENTRICITY":0.00127515,"INCLINATION":45.0076,"RA_OF_ASC_NODE":263.3114,"ARG_OF_PERICENTER":13.0472,"MEAN_ANOMALY":347.069,"EPHEMERIS_TYPE":0,"CLASSIFICATION_TYPE":"U","NORAD_CAT_ID":44782,"ELEMENT_SET_NO":999,"REV_AT_EPOCH":32389,"BSTAR":0.00011688913,"MEAN_MOTION_DOT":5.0e-7,"MEAN_MOTION_DDOT":0},{"OBJECT_NAME":"COSMOS 1275 DEB","OBJECT_ID":"1981-053G","EPOCH":"2026-03-09T23:37:59.882304","MEAN_MOTION":14.0267746,"ECCENTRICITY":0.00494993,"INCLINATION":82.9345,"RA_OF_ASC_NODE":73.6053,"ARG_OF_PERICENTER":265.2589,"MEAN_ANOMALY":123.4379,"EPHEMERIS_TYPE":0,"CLASSIFICATION_TYPE":"U","NORAD_CAT_ID":12652,"ELEMENT_SET_NO":999,"REV_AT_EPOCH":18197,"BSTAR":0.0013172818,"MEAN_MOTION_DOT":2.069e-5,"MEAN_MOTION_DDOT":0}]
